{
    "links": {
        "self": "http://www.neowsapp.com/rest/v1/neo/3826633?api_key=iIulBulltgU6a56xZRHN4H3l9WmuAYTsLGpBGhQ2"
    },
    "id": "3826633",
    "neo_reference_id": "3826633",
    "name": "(2018 PH8)",
    "designation": "2018 PH8",
    "nasa_jpl_url": "http://ssd.jpl.nasa.gov/sbdb.cgi?sstr=3826633",
    "absolute_magnitude_h": 25.0,
    "estimated_diameter": {
        "kilometers": {
            "estimated_diameter_min": 0.02658,
            "estimated_diameter_max": 0.0594346868
        },
        "meters": {
            "estimated_diameter_min": 26.58,
            "estimated_diameter_max": 59.4346868419
        },
        "miles": {
            "estimated_diameter_min": 0.0165160412,
            "estimated_diameter_max": 0.0369309908
        },
        "feet": {
            "estimated_diameter_min": 87.2047272,
            "estimated_diameter_max": 194.9956979785
        }
    },
    "is_potentially_hazardous_asteroid": false,
    "close_approach_data": [
        {
            "close_approach_date": "2018-07-12",
            "close_approach_date_full": "2018-Jul-12 11:55",
            "epoch_date_close_approach": 1531396500000,
            "relative_velocity": {
                "kilometers_per_second": "8.1774488491",
                "kilometers_per_hour": "29438.8158566075",
                "miles_per_hour": "18292.1353304571"
            },
            "miss_distance": {
                "astronomical": "0.0448262404",
                "lunar": "17.4374075156",
                "kilometers": "6705910.083947948",
                "miles": "4166859.3063317624"
            },
            "orbiting_body": "Earth"
        }
    ],
    "orbital_data": {
        "orbit_id": "2",
        "orbit_determination_date": "2019-08-08 05:55:29",
        "first_observation_date": "2018-07-11",
        "last_observation_date": "2018-08-08",
        "data_arc_in_days": 28,
        "observations_used": 19,
        "orbit_uncertainty": "8",
        "minimum_orbit_intersection": ".01226",
        "jupiter_tisserand_invariant": "3.491",
        "epoch_osculation": "2458329.5",
        "eccentricity": ".5276874052333477",
        "semi_major_axis": "2.174631132254127",
        "inclination": ".3093825993972223",
        "ascending_node_longitude": "207.626104134447",
        "orbital_period": "1171.323424656214",
        "perihelion_distance": "1.02710567273529",
        "perihelion_argument": "60.07625730347617",
        "aphelion_distance": "3.322156591772965",
        "perihelion_time": "2458294.201546273402",
        "mean_anomaly": "10.84879126813753",
        "mean_motion": ".3073446602552671",
        "equinox": "J2000",
        "orbit_class": {
            "orbit_class_type": "AMO",
            "orbit_class_description": "Near-Earth asteroid orbits similar to that of 1221 Amor",
            "orbit_class_range": "1.017 AU < q (perihelion) < 1.3 AU"
        }
    },
    "is_sentry_object": false
}